[{"OBJECT_NAME":"STARLINK-2033","OBJECT_ID":"2021-012AG","EPOCH":"2026-03-09T22:36:32.826240","MEAN_MOTION":15.29332756,"ECCENTRICITY":0.00015832,"INCLINATION":53.1575,"RA_OF_ASC_NODE":48.3997,"ARG_OF_PERICENTER":87.1336,"MEAN_ANOMALY":272.9845,"EPHEMERIS_TYPE":0,"CLASSIFICATION_TYPE":"U","NORAD_CAT_ID":47650,"ELEMENT_SET_NO":999,"REV_AT_EPOCH":28032,"BSTAR":8.202581e-5,"MEAN_MOTION_DOT":2.01e-5,"MEAN_MOTION_DDOT":0},{"OBJECT_NAME":"ARCSTONE","OBJECT_ID":"2025-135N","EPOCH":"2026-03-09T21:21:29.017152","MEAN_MOTION":15.28638458,"ECCENTRICITY":0.00041199,"INCLINATION":97.4495,"RA_OF_ASC_NODE":185.9194,"ARG_OF_PERICENTER":166.7863,"MEAN_ANOMALY":193.3485,"EPHEMERIS_TYPE":0,"CLASSIFICATION_TYPE":"U","NORAD_CAT_ID":64540,"ELEMENT_SET_NO":999,"REV_AT_EPOCH":3984,"BSTAR":0.00094899777,"MEAN_MOTION_DOT":0.00026427,"MEAN_MOTION_DDOT":0}]
